ASTRA 1D                
1 23331U 94070A   18039.42847750 -.00000277  00000-0  00000-0 0  9997
2 23331   7.9107  47.6268 0003890 273.7249 258.3537  1.00270708 85691
ASTRA 1F                
1 23842U 96021A   18039.86576992  .00000128  00000-0  00000-0 0  9991
2 23842   0.0365  42.3196 0003718 274.5921 177.9395  1.00270185 21760
AMC-1 (GE-1)            
1 24315U 96054A   18039.21300274  .00000055  00000-0  00000-0 0  9999
2 24315   2.0629  83.9249 0002554 245.5592 114.5301  1.00273463 15736
AMC-2 (GE-2)            
1 24713U 97002A   18039.52549324 -.00000224  00000-0  00000-0 0  9999
2 24713   4.7712  64.7488 0005315 263.5761 274.5387  1.00273879 76995
AMC-3 (GE-3)            
1 24936U 97050A   18039.36018164 -.00000271  00000-0  00000-0 0  9996
2 24936   0.8827  91.4593 0002614 237.9609 226.6235  1.00271605 21844
NSS-5                   
1 24957U 97053A   18039.87346348  .00000095  00000-0  00000-0 0  9999
2 24957   4.2934  68.1562 0003612 263.8044 171.8711  1.00274131 74598
ASTRA 1G                
1 25071U 97076A   18039.79266264  .00000094  00000-0  00000-0 0  9990
2 25071   2.8066  77.5299 0003296 243.7670 153.9651  1.00271173 73975
NSS-806                 
1 25239U 98014A   18039.63082896 -.00000290  00000-0  00000-0 0  9998
2 25239   0.0512   7.2585 0004541 317.3467 353.6575  1.00272558 16712
ASTRA 2A                
1 25462U 98050A   18039.87268258 -.00000370  00000-0  00000+0 0  9998
2 25462   0.0565 248.4339 0002263  80.0514 238.0674  1.00271952 71152
ASTRA 1H                
1 25785U 99033A   18039.56018146 -.00000279  00000-0  00000-0 0  9992
2 25785   4.2778  68.3099 0004196 316.2929 251.6290  1.00021063 20824
AMC-4 (GE-4)            
1 25954U 99060A   18038.99123527  .00000076  00000-0  00000-0 0  9990
2 25954   0.0094  74.0895 0002465 256.1405  29.7242  1.00271703 13138
ASTRA 2B                
1 26494U 00054A   18039.87178205 -.00000166  00000-0  00000-0 0  9997
2 26494   2.6973  78.2008 0005325 257.0530  97.8705  1.00272368 16299
AMC-7 (GE-7)            
1 26495U 00054B   18038.99146421  .00000076  00000-0  00000-0 0  9994
2 26495   0.0247  70.6486 0002236 223.4124  65.8839  1.00274715 63648
NSS-11 (AAP-1)          
1 26554U 00059A   18039.76348203  .00000014  00000-0  00000+0 0  9994
2 26554   0.0114  71.3094 0003053 272.1809 246.1471  1.00273692 63581
AMC-6 (GE-6)            
1 26580U 00067A   18039.57337726 -.00000227  00000-0  00000-0 0  9997
2 26580   0.0597 280.7773 0002376  59.3282 281.8989  1.00273482 63387
ASTRA 2D                
1 26638U 00081A   18039.64084299  .00000035  00000-0  00000-0 0  9995
2 26638   4.1045  68.9708 0002157 237.4060 122.6985  1.00269801 22325
AMC-8 (GE-8)            
1 26639U 00081B   18039.53934920  .00000093  00000-0  00000+0 0  9992
2 26639   0.0300 295.0225 0002435 356.0260 262.6693  1.00266632 62684
ASTRA 2C                
1 26853U 01025A   18039.92360279  .00000035  00000-0  00000-0 0  9999
2 26853   0.9046  91.0488 0003405 231.1231 209.5417  1.00271905 14479
ASTRA 3A                
1 27400U 02015B   18038.93572664 -.00000295  00000-0  00000-0 0  9990
2 27400   4.2612  67.6951 0002988 264.0669  96.0258  1.00268741 58130
NSS-7                   
1 27414U 02019A   18038.90001010 -.00000170  00000-0  00000-0 0  9990
2 27414   2.3838  81.8474 0002840 255.5558 104.5349  1.00271170 57978
NSS-6                   
1 27603U 02057A   18039.85948757 -.00000280  00000-0  00000+0 0  9996
2 27603   0.0077 263.3612 0002483  52.3799 227.5341  1.00271090 55508
AMC-10 (GE-10)          
1 28154U 04003A   18039.57233899  .00000077  00000-0  00000-0 0  9998
2 28154   0.0413 277.2107 0001078  93.1039 199.2990  1.00271544 51310
AMC-11 (GE-11)          
1 28252U 04017A   18039.26573743  .00000057  00000-0  00000+0 0  9990
2 28252   0.0480 286.4541 0003298  41.9139 134.5852  1.00273188 50117
AMC-15                  
1 28446U 04041A   18039.59420895 -.00000100  00000-0  00000-0 0  9998
2 28446   0.0383 291.0024 0002656  45.7367 270.7481  1.00273320 48806
AMC-16                  
1 28472U 04048A   18039.57337726 -.00000217  00000-0  00000-0 0  9991
2 28472   0.0457 283.8800 0002575  39.7192 296.3943  1.00271245 48224
NSS-10 (AMC-12)         
1 28526U 05003A   18039.54563201 -.00000262  00000-0  00000-0 0  9999
2 28526   0.0627 282.2480 0002637  41.2807 334.0089  1.00271352 22581
ASTRA 1KR               
1 29055U 06012A   18039.88448729  .00000109  00000-0  00000+0 0  9990
2 29055   0.0673 273.2806 0003843   9.7867 193.4243  1.00273548 43151
AMC-18                  
1 29644U 06054B   18039.58938171 -.00000101  00000-0  00000+0 0  9995
2 29644   0.0092  47.5506 0002460 292.2511 266.0494  1.00274649 40962
ASTRA 1L                
1 31306U 07016A   18039.88448729  .00000109  00000-0  00000-0 0  9998
2 31306   0.0789 294.2845 0005240  20.1844 162.0453  1.00274421 39456
ASTRA 4A (SIRIUS 4)     
1 32299U 07057A   18039.79391979  .00000021  00000-0  00000-0 0  9992
2 32299   0.0233 337.6255 0002884 356.3009  95.4952  1.00273067 37374
AMC-21                  
1 33275U 08038B   18039.47337309  .00000025  00000-0  00000-0 0  9993
2 33275   0.0630 285.9735 0002662  52.5865 205.4424  1.00273847 34906
ASTRA 1M                
1 33436U 08057A   18039.88448729  .00000108  00000-0  00000-0 0  9999
2 33436   0.0133 125.7106 0000478 149.6850 201.0920  1.00270540 15157
CIEL-2                  
1 33453U 08063A   18039.53410674  .00000047  00000-0  00000-0 0  9997
2 33453   0.0072 308.5632 0003043  19.0379 234.3857  1.00273997 33562
NSS-9                   
1 33749U 09008A   18039.69345208  .00000060  00000-0  00000+0 0  9996
2 33749   0.0395 292.1975 0001992  46.3909 232.8155  1.00272721 32971
SES-7 (PROTOSTAR 2)     
1 34941U 09027A   18039.87268258 -.00000356  00000-0  00000+0 0  9990
2 34941   0.0106  61.0622 0002427 225.3181 274.9166  1.00271383 32032
NSS-12                  
1 36032U 09058A   18039.45688166  .00000059  00000-0  00000-0 0  9995
2 36032   0.0522 283.6301 0002577  50.6926  25.6333  1.00273785 30353
SES-1                   
1 36516U 10016A   18039.68007885 -.00000125  00000-0  00000-0 0  9991
2 36516   0.0480 282.6227 0001995  41.0895 318.8126  1.00272313 28463
ASTRA 3B                
1 36581U 10021A   18039.88448729  .00000126  00000-0  00000-0 0  9997
2 36581   0.0338  49.0872 0003250 271.5306 160.1847  1.00270255 28293
SES-3                   
1 37748U 11035A   18039.84874373 -.00000113  00000-0  00000+0 0  9999
2 37748   0.0568 281.8271 0001975  36.6986  22.8826  1.00272761 24100
ASTRA 1N                
1 37775U 11041A   18039.88448729  .00000108  00000-0  00000-0 0  9996
2 37775   0.0448 359.8747 0004558   4.3409 112.2734  1.00271972 13959
SES-2                   
1 37809U 11049A   18039.57823993 -.00000207  00000-0  00000+0 0  9998
2 37809   0.0592 280.9756 0002485  45.6809 293.0988  1.00271545 23428
QUETZSAT 1              
1 37826U 11054A   18039.54933932 -.00000253  00000-0  00000-0 0  9997
2 37826   0.0181   9.4185 0002530 318.1938 291.7226  1.00272454 19327
SES-4                   
1 38087U 12007A   18039.54073740 -.00000180  00000-0  00000+0 0  9996
2 38087   0.0174  15.7603 0002285 293.3790   2.0884  1.00271636 21890
SES-5                   
1 38652U 12036A   18039.72849767  .00000022  00000-0  00000-0 0  9991
2 38652   0.0419 268.6157 0001955  50.7851  86.5751  1.00272009 13918
ASTRA 2F                
1 38778U 12051A   18039.53666617  .00000138  00000-0  00000-0 0  9995
2 38778   0.0951 250.3533 0002787  23.1105  86.4731  1.00270900 10578
SES-6                   
1 39172U 13026A   18038.72971868 -.00000274  00000-0  00000-0 0  9996
2 39172   0.0338 324.4669 0001729   2.6566  32.8337  1.00271598 17148
O3B FM5                 
1 39188U 13031A   18039.57406924 -.00000029  00000-0  00000+0 0  9996
2 39188   0.0501 349.5639 0007782 295.5577  74.7862  5.00116220 84508
O3B FM4                 
1 39189U 13031B   18039.26635658 -.00000029  00000-0  00000-0 0  9992
2 39189   0.0311  20.0371 0002686  50.6740 289.3117  5.00115961 84511
O3B FM2                 
1 39190U 13031C   18039.44128479 -.00000029  00000-0  00000-0 0  9992
2 39190   0.0264  23.3955 0003319  53.1798 283.4554  5.00115829 84499
O3B PFM                 
1 39191U 13031D   18039.26459190 -.00000029  00000-0  00000-0 0  9990
2 39191   0.0441 356.6375 0001376 279.0947  84.2458  5.00116232 84489
ASTRA 2E                
1 39285U 13056A   18039.53576044  .00000139  00000-0  00000-0 0  9990
2 39285   0.0549   9.1174 0002593 304.8110  46.0192  1.00275448 16005
SES-8                   
1 39460U 13071A   18039.35165008 -.00000281  00000-0  00000+0 0  9994
2 39460   0.0589 273.5961 0001306  96.0243 350.3507  1.00271876 15284
ASTRA 5B                
1 39617U 14011B   18039.87966010  .00000143  00000-0  00000-0 0  9999
2 39617   0.0767 294.0543 0002940  24.2197 168.7937  1.00274069 14088
O3B FM3                 
1 40079U 14038A   18039.37647475 -.00000029  00000-0  00000-0 0  9992
2 40079   0.0351   5.5574 0004552 289.5680  64.8212  5.00115615 60598
O3B FM7                 
1 40080U 14038B   18039.53112675 -.00000029  00000-0  00000-0 0  9991
2 40080   0.0348   9.5036 0003129 301.5513  48.9119  5.00115483 65386
O3B FM6                 
1 40081U 14038C   18039.55426141 -.00000029  00000-0  00000-0 0  9990
2 40081   0.0352   7.2908 0003471 298.6249  54.0458  5.00115963 65362
O3B FM8                 
1 40082U 14038D   18039.39863842 -.00000029  00000-0  00000-0 0  9996
2 40082   0.0337  12.4254 0002030 277.5856  69.9608  5.00116058 65467
O3B FM10                
1 40348U 14083A   18039.42075313 -.00000029  00000-0  00000-0 0  9993
2 40348   0.0392 358.2965 0003387 334.4710  27.2086  5.00115982 57431
O3B FM11                
1 40349U 14083B   18039.24276981 -.00000029  00000-0  00000-0 0  9998
2 40349   0.0416 357.8422 0002802 335.5852  26.5520  5.00115773 57424
O3B FM12                
1 40350U 14083C   18039.30981342 -.00000029  00000-0  00000-0 0  9991
2 40350   0.0410 359.2601 0002487 323.7150  37.0015  5.00115615 57436
O3B FM9                 
1 40351U 14083D   18039.48720918 -.00000029  00000-0  00000+0 0  9990
2 40351   0.0413 356.1826 0003093 330.9377  32.8542  5.00115506 57448
ASTRA 2G                
1 40364U 14089A   18039.53675379  .00000138  00000-0  00000-0 0  9997
2 40364   0.0503 300.7129 0003148  85.9977 333.2744  1.00275259 11380
SES-9                   
1 41380U 16013A   18039.31481248 -.00000357  00000-0  00000+0 0  9994
2 41380   0.0482 278.9923 0001026  83.2126 357.7642  1.00272189  7161
SES-10                  
1 42432U 17017A   18038.80285478 -.00000285  00000-0  00000-0 0  9999
2 42432   0.0085  59.6178 0002580 269.1742  31.1607  1.00270340  3189
SES-15                  
1 42709U 17026A   18038.97533467  .00000047  00000-0  00000-0 0  9993
2 42709   0.0201 137.9739 0000622 201.1293  20.8626  1.00272380  3587
SES-11 (ECHOSTAR 105)   
1 42967U 17063A   18039.90559785 -.00000100  00000-0  00000-0 0  9996
2 42967   0.0601 259.4547 0001564 127.8206 332.7020  1.00272346  1222
SES-14                  
1 43175U 18012B   18039.88580120 -.00000094  00000-0  00000+0 0  9998
2 43175  19.1342 228.1522 7406435 238.8364 352.4715  1.69902640   258
